<?xml version="1.0" encoding="UTF-8"?>
<ndm xmlns:xsi="http://www.w3.org/2001/XMLSchema-instance" xsi:noNamespaceSchemaLocation="https://sanaregistry.org/r/ndmxml_unqualified/ndmxml-2.0.0-master-2.0.xsd">
<omm id="CCSDS_OMM_VERS" version="2.0">
<header><CREATION_DATE/><ORIGINATOR/></header><body><segment><metadata><OBJECT_NAME>KUIPER-00144</OBJECT_NAME><OBJECT_ID>2025-301A</OBJECT_ID><CENTER_NAME>EARTH</CENTER_NAME><REF_FRAME>TEME</REF_FRAME><TIME_SYSTEM>UTC</TIME_SYSTEM><MEAN_ELEMENT_THEORY>SGP4</MEAN_ELEMENT_THEORY></metadata><data><meanElements><EPOCH>2026-01-08T12:27:09.925632</EPOCH><MEAN_MOTION>15.36022087</MEAN_MOTION><ECCENTRICITY>.00064534</ECCENTRICITY><INCLINATION>51.8704</INCLINATION><RA_OF_ASC_NODE>355.9763</RA_OF_ASC_NODE><ARG_OF_PERICENTER>159.6399</ARG_OF_PERICENTER><MEAN_ANOMALY>200.4846</MEAN_ANOMALY></meanElements><tleParameters><EPHEMERIS_TYPE>0</EPHEMERIS_TYPE><CLASSIFICATION_TYPE>U</CLASSIFICATION_TYPE><NORAD_CAT_ID>67133</NORAD_CAT_ID><ELEMENT_SET_NO>999</ELEMENT_SET_NO><REV_AT_EPOCH>448</REV_AT_EPOCH><BSTAR>.13664368E-2</BSTAR><MEAN_MOTION_DOT>.48626E-3</MEAN_MOTION_DOT><MEAN_MOTION_DDOT>0</MEAN_MOTION_DDOT></tleParameters></data></segment></body></omm>
<omm id="CCSDS_OMM_VERS" version="2.0">
<header><CREATION_DATE/><ORIGINATOR/></header><body><segment><metadata><OBJECT_NAME>KUIPER-00164</OBJECT_NAME><OBJECT_ID>2025-301B</OBJECT_ID><CENTER_NAME>EARTH</CENTER_NAME><REF_FRAME>TEME</REF_FRAME><TIME_SYSTEM>UTC</TIME_SYSTEM><MEAN_ELEMENT_THEORY>SGP4</MEAN_ELEMENT_THEORY></metadata><data><meanElements><EPOCH>2026-01-08T10:38:58.867296</EPOCH><MEAN_MOTION>15.36560888</MEAN_MOTION><ECCENTRICITY>.00028929</ECCENTRICITY><INCLINATION>51.8725</INCLINATION><RA_OF_ASC_NODE>356.2265</RA_OF_ASC_NODE><ARG_OF_PERICENTER>137.9222</ARG_OF_PERICENTER><MEAN_ANOMALY>222.1987</MEAN_ANOMALY></meanElements><tleParameters><EPHEMERIS_TYPE>0</EPHEMERIS_TYPE><CLASSIFICATION_TYPE>U</CLASSIFICATION_TYPE><NORAD_CAT_ID>67134</NORAD_CAT_ID><ELEMENT_SET_NO>999</ELEMENT_SET_NO><REV_AT_EPOCH>465</REV_AT_EPOCH><BSTAR>.10968757E-2</BSTAR><MEAN_MOTION_DOT>.39577E-3</MEAN_MOTION_DOT><MEAN_MOTION_DDOT>0</MEAN_MOTION_DDOT></tleParameters></data></segment></body></omm>
<omm id="CCSDS_OMM_VERS" version="2.0">
<header><CREATION_DATE/><ORIGINATOR/></header><body><segment><metadata><OBJECT_NAME>KUIPER-00175</OBJECT_NAME><OBJECT_ID>2025-301C</OBJECT_ID><CENTER_NAME>EARTH</CENTER_NAME><REF_FRAME>TEME</REF_FRAME><TIME_SYSTEM>UTC</TIME_SYSTEM><MEAN_ELEMENT_THEORY>SGP4</MEAN_ELEMENT_THEORY></metadata><data><meanElements><EPOCH>2026-01-08T10:28:06.346848</EPOCH><MEAN_MOTION>15.37145000</MEAN_MOTION><ECCENTRICITY>.00028572</ECCENTRICITY><INCLINATION>51.8744</INCLINATION><RA_OF_ASC_NODE>356.1735</RA_OF_ASC_NODE><ARG_OF_PERICENTER>92.8246</ARG_OF_PERICENTER><MEAN_ANOMALY>267.3067</MEAN_ANOMALY></meanElements><tleParameters><EPHEMERIS_TYPE>0</EPHEMERIS_TYPE><CLASSIFICATION_TYPE>U</CLASSIFICATION_TYPE><NORAD_CAT_ID>67135</NORAD_CAT_ID><ELEMENT_SET_NO>999</ELEMENT_SET_NO><REV_AT_EPOCH>454</REV_AT_EPOCH><BSTAR>.65283324E-3</BSTAR><MEAN_MOTION_DOT>.23798E-3</MEAN_MOTION_DOT><MEAN_MOTION_DDOT>0</MEAN_MOTION_DDOT></tleParameters></data></segment></body></omm>
<omm id="CCSDS_OMM_VERS" version="2.0">
<header><CREATION_DATE/><ORIGINATOR/></header><body><segment><metadata><OBJECT_NAME>KUIPER-00179</OBJECT_NAME><OBJECT_ID>2025-301D</OBJECT_ID><CENTER_NAME>EARTH</CENTER_NAME><REF_FRAME>TEME</REF_FRAME><TIME_SYSTEM>UTC</TIME_SYSTEM><MEAN_ELEMENT_THEORY>SGP4</MEAN_ELEMENT_THEORY></metadata><data><meanElements><EPOCH>2026-01-08T10:35:54.020544</EPOCH><MEAN_MOTION>15.36702726</MEAN_MOTION><ECCENTRICITY>.00033787</ECCENTRICITY><INCLINATION>51.8737</INCLINATION><RA_OF_ASC_NODE>356.2110</RA_OF_ASC_NODE><ARG_OF_PERICENTER>120.0028</ARG_OF_PERICENTER><MEAN_ANOMALY>240.1295</MEAN_ANOMALY></meanElements><tleParameters><EPHEMERIS_TYPE>0</EPHEMERIS_TYPE><CLASSIFICATION_TYPE>U</CLASSIFICATION_TYPE><NORAD_CAT_ID>67136</NORAD_CAT_ID><ELEMENT_SET_NO>999</ELEMENT_SET_NO><REV_AT_EPOCH>465</REV_AT_EPOCH><BSTAR>.55672216E-3</BSTAR><MEAN_MOTION_DOT>.19936E-3</MEAN_MOTION_DOT><MEAN_MOTION_DDOT>0</MEAN_MOTION_DDOT></tleParameters></data></segment></body></omm>
<omm id="CCSDS_OMM_VERS" version="2.0">
<header><CREATION_DATE/><ORIGINATOR/></header><body><segment><metadata><OBJECT_NAME>KUIPER-00181</OBJECT_NAME><OBJECT_ID>2025-301E</OBJECT_ID><CENTER_NAME>EARTH</CENTER_NAME><REF_FRAME>TEME</REF_FRAME><TIME_SYSTEM>UTC</TIME_SYSTEM><MEAN_ELEMENT_THEORY>SGP4</MEAN_ELEMENT_THEORY></metadata><data><meanElements><EPOCH>2026-01-08T14:23:58.388640</EPOCH><MEAN_MOTION>15.34765373</MEAN_MOTION><ECCENTRICITY>.00102632</ECCENTRICITY><INCLINATION>51.8654</INCLINATION><RA_OF_ASC_NODE>355.7575</RA_OF_ASC_NODE><ARG_OF_PERICENTER>186.6277</ARG_OF_PERICENTER><MEAN_ANOMALY>173.4574</MEAN_ANOMALY></meanElements><tleParameters><EPHEMERIS_TYPE>0</EPHEMERIS_TYPE><CLASSIFICATION_TYPE>U</CLASSIFICATION_TYPE><NORAD_CAT_ID>67137</NORAD_CAT_ID><ELEMENT_SET_NO>999</ELEMENT_SET_NO><REV_AT_EPOCH>465</REV_AT_EPOCH><BSTAR>-.77548964E-4</BSTAR><MEAN_MOTION_DOT>-.3043E-4</MEAN_MOTION_DOT><MEAN_MOTION_DDOT>0</MEAN_MOTION_DDOT></tleParameters></data></segment></body></omm>
<omm id="CCSDS_OMM_VERS" version="2.0">
<header><CREATION_DATE/><ORIGINATOR/></header><body><segment><metadata><OBJECT_NAME>KUIPER-00183</OBJECT_NAME><OBJECT_ID>2025-301F</OBJECT_ID><CENTER_NAME>EARTH</CENTER_NAME><REF_FRAME>TEME</REF_FRAME><TIME_SYSTEM>UTC</TIME_SYSTEM><MEAN_ELEMENT_THEORY>SGP4</MEAN_ELEMENT_THEORY></metadata><data><meanElements><EPOCH>2026-01-08T12:56:41.156736</EPOCH><MEAN_MOTION>15.34696729</MEAN_MOTION><ECCENTRICITY>.00111346</ECCENTRICITY><INCLINATION>51.8633</INCLINATION><RA_OF_ASC_NODE>356.0957</RA_OF_ASC_NODE><ARG_OF_PERICENTER>187.4875</ARG_OF_PERICENTER><MEAN_ANOMALY>172.5946</MEAN_ANOMALY></meanElements><tleParameters><EPHEMERIS_TYPE>0</EPHEMERIS_TYPE><CLASSIFICATION_TYPE>U</CLASSIFICATION_TYPE><NORAD_CAT_ID>67138</NORAD_CAT_ID><ELEMENT_SET_NO>999</ELEMENT_SET_NO><REV_AT_EPOCH>465</REV_AT_EPOCH><BSTAR>.92446394E-3</BSTAR><MEAN_MOTION_DOT>.31369E-3</MEAN_MOTION_DOT><MEAN_MOTION_DDOT>0</MEAN_MOTION_DDOT></tleParameters></data></segment></body></omm>
<omm id="CCSDS_OMM_VERS" version="2.0">
<header><CREATION_DATE/><ORIGINATOR/></header><body><segment><metadata><OBJECT_NAME>KUIPER-00184</OBJECT_NAME><OBJECT_ID>2025-301G</OBJECT_ID><CENTER_NAME>EARTH</CENTER_NAME><REF_FRAME>TEME</REF_FRAME><TIME_SYSTEM>UTC</TIME_SYSTEM><MEAN_ELEMENT_THEORY>SGP4</MEAN_ELEMENT_THEORY></metadata><data><meanElements><EPOCH>2026-01-08T14:22:37.468128</EPOCH><MEAN_MOTION>15.34929264</MEAN_MOTION><ECCENTRICITY>.0009325</ECCENTRICITY><INCLINATION>51.8641</INCLINATION><RA_OF_ASC_NODE>355.7496</RA_OF_ASC_NODE><ARG_OF_PERICENTER>185.8452</ARG_OF_PERICENTER><MEAN_ANOMALY>174.2427</MEAN_ANOMALY></meanElements><tleParameters><EPHEMERIS_TYPE>0</EPHEMERIS_TYPE><CLASSIFICATION_TYPE>U</CLASSIFICATION_TYPE><NORAD_CAT_ID>67139</NORAD_CAT_ID><ELEMENT_SET_NO>999</ELEMENT_SET_NO><REV_AT_EPOCH>477</REV_AT_EPOCH><BSTAR>.6511085E-3</BSTAR><MEAN_MOTION_DOT>.22105E-3</MEAN_MOTION_DOT><MEAN_MOTION_DDOT>0</MEAN_MOTION_DDOT></tleParameters></data></segment></body></omm>
<omm id="CCSDS_OMM_VERS" version="2.0">
<header><CREATION_DATE/><ORIGINATOR/></header><body><segment><metadata><OBJECT_NAME>KUIPER-00186</OBJECT_NAME><OBJECT_ID>2025-301H</OBJECT_ID><CENTER_NAME>EARTH</CENTER_NAME><REF_FRAME>TEME</REF_FRAME><TIME_SYSTEM>UTC</TIME_SYSTEM><MEAN_ELEMENT_THEORY>SGP4</MEAN_ELEMENT_THEORY></metadata><data><meanElements><EPOCH>2026-01-08T14:09:02.950272</EPOCH><MEAN_MOTION>15.35744545</MEAN_MOTION><ECCENTRICITY>.00080402</ECCENTRICITY><INCLINATION>51.8690</INCLINATION><RA_OF_ASC_NODE>355.6968</RA_OF_ASC_NODE><ARG_OF_PERICENTER>171.5957</ARG_OF_PERICENTER><MEAN_ANOMALY>188.5165</MEAN_ANOMALY></meanElements><tleParameters><EPHEMERIS_TYPE>0</EPHEMERIS_TYPE><CLASSIFICATION_TYPE>U</CLASSIFICATION_TYPE><NORAD_CAT_ID>67140</NORAD_CAT_ID><ELEMENT_SET_NO>999</ELEMENT_SET_NO><REV_AT_EPOCH>449</REV_AT_EPOCH><BSTAR>.97845278E-3</BSTAR><MEAN_MOTION_DOT>.34346E-3</MEAN_MOTION_DOT><MEAN_MOTION_DDOT>0</MEAN_MOTION_DDOT></tleParameters></data></segment></body></omm>
<omm id="CCSDS_OMM_VERS" version="2.0">
<header><CREATION_DATE/><ORIGINATOR/></header><body><segment><metadata><OBJECT_NAME>KUIPER-00187</OBJECT_NAME><OBJECT_ID>2025-301J</OBJECT_ID><CENTER_NAME>EARTH</CENTER_NAME><REF_FRAME>TEME</REF_FRAME><TIME_SYSTEM>UTC</TIME_SYSTEM><MEAN_ELEMENT_THEORY>SGP4</MEAN_ELEMENT_THEORY></metadata><data><meanElements><EPOCH>2026-01-08T13:52:52.457088</EPOCH><MEAN_MOTION>15.36007549</MEAN_MOTION><ECCENTRICITY>.00043149</ECCENTRICITY><INCLINATION>51.8712</INCLINATION><RA_OF_ASC_NODE>355.6279</RA_OF_ASC_NODE><ARG_OF_PERICENTER>152.5602</ARG_OF_PERICENTER><MEAN_ANOMALY>207.5613</MEAN_ANOMALY></meanElements><tleParameters><EPHEMERIS_TYPE>0</EPHEMERIS_TYPE><CLASSIFICATION_TYPE>U</CLASSIFICATION_TYPE><NORAD_CAT_ID>67141</NORAD_CAT_ID><ELEMENT_SET_NO>999</ELEMENT_SET_NO><REV_AT_EPOCH>449</REV_AT_EPOCH><BSTAR>-.63512946E-3</BSTAR><MEAN_MOTION_DOT>-.22937E-3</MEAN_MOTION_DOT><MEAN_MOTION_DDOT>0</MEAN_MOTION_DDOT></tleParameters></data></segment></body></omm>

</ndm>
